[{"OBJECT_NAME":"STARLINK-11495 [DTC]","OBJECT_ID":"2024-237J","EPOCH":"2025-07-27T17:21:04.130208","MEAN_MOTION":15.70860072,"ECCENTRICITY":0.0002167,"INCLINATION":43.0002,"RA_OF_ASC_NODE":333.2799,"ARG_OF_PERICENTER":277.1499,"MEAN_ANOMALY":82.9122,"EPHEMERIS_TYPE":0,"CLASSIFICATION_TYPE":"U","NORAD_CAT_ID":62275,"ELEMENT_SET_NO":999,"REV_AT_EPOCH":3760,"BSTAR":0.0019581,"MEAN_MOTION_DOT":0.00259011,"MEAN_MOTION_DDOT":0},{"OBJECT_NAME":"STARLINK-11498 [DTC]","OBJECT_ID":"2024-237K","EPOCH":"2025-07-27T17:43:49.340928","MEAN_MOTION":15.70895957,"ECCENTRICITY":0.0001327,"INCLINATION":42.9997,"RA_OF_ASC_NODE":332.5118,"ARG_OF_PERICENTER":285.8486,"MEAN_ANOMALY":74.2235,"EPHEMERIS_TYPE":0,"CLASSIFICATION_TYPE":"U","NORAD_CAT_ID":62276,"ELEMENT_SET_NO":999,"REV_AT_EPOCH":3766,"BSTAR":0.0022883,"MEAN_MOTION_DOT":0.00304919,"MEAN_MOTION_DDOT":0},{"OBJECT_NAME":"STARLINK-11484 [DTC]","OBJECT_ID":"2024-237L","EPOCH":"2025-07-27T17:59:06.544320","MEAN_MOTION":15.70865052,"ECCENTRICITY":0.0001517,"INCLINATION":42.9998,"RA_OF_ASC_NODE":332.596,"ARG_OF_PERICENTER":273.8903,"MEAN_ANOMALY":86.1791,"EPHEMERIS_TYPE":0,"CLASSIFICATION_TYPE":"U","NORAD_CAT_ID":62277,"ELEMENT_SET_NO":999,"REV_AT_EPOCH":3766,"BSTAR":0.0010191,"MEAN_MOTION_DOT":0.0013256,"MEAN_MOTION_DDOT":0},{"OBJECT_NAME":"STARLINK-11487 [DTC]","OBJECT_ID":"2024-237M","EPOCH":"2025-07-27T15:34:12.799200","MEAN_MOTION":15.70866486,"ECCENTRICITY":0.0001537,"INCLINATION":43.0014,"RA_OF_ASC_NODE":333.5762,"ARG_OF_PERICENTER":257.2513,"MEAN_ANOMALY":102.8183,"EPHEMERIS_TYPE":0,"CLASSIFICATION_TYPE":"U","NORAD_CAT_ID":62278,"ELEMENT_SET_NO":999,"REV_AT_EPOCH":3765,"BSTAR":0.0012953,"MEAN_MOTION_DOT":0.00169373,"MEAN_MOTION_DDOT":0},{"OBJECT_NAME":"STARLINK-11499 [DTC]","OBJECT_ID":"2024-237N","EPOCH":"2025-07-27T17:22:22.865664","MEAN_MOTION":15.70897285,"ECCENTRICITY":0.0001455,"INCLINATION":42.9997,"RA_OF_ASC_NODE":333.2851,"ARG_OF_PERICENTER":282.3289,"MEAN_ANOMALY":77.7416,"EPHEMERIS_TYPE":0,"CLASSIFICATION_TYPE":"U","NORAD_CAT_ID":62279,"ELEMENT_SET_NO":999,"REV_AT_EPOCH":3761,"BSTAR":0.0016772,"MEAN_MOTION_DOT":0.00221112,"MEAN_MOTION_DDOT":0},{"OBJECT_NAME":"STARLINK-33548","OBJECT_ID":"2024-237P","EPOCH":"2025-07-27T20:47:22.106112","MEAN_MOTION":15.27608097,"ECCENTRICITY":0.0001601,"INCLINATION":43.0003,"RA_OF_ASC_NODE":35.1829,"ARG_OF_PERICENTER":265.197,"MEAN_ANOMALY":94.8698,"EPHEMERIS_TYPE":0,"CLASSIFICATION_TYPE":"U","NORAD_CAT_ID":62280,"ELEMENT_SET_NO":999,"REV_AT_EPOCH":3693,"BSTAR":0.00072534,"MEAN_MOTION_DOT":0.00019768,"MEAN_MOTION_DDOT":0},{"OBJECT_NAME":"STARLINK-33544","OBJECT_ID":"2024-237Q","EPOCH":"2025-07-27T20:30:41.614848","MEAN_MOTION":15.27591697,"ECCENTRICITY":0.0001335,"INCLINATION":43.0021,"RA_OF_ASC_NODE":46.3442,"ARG_OF_PERICENTER":279.9112,"MEAN_ANOMALY":80.1589,"EPHEMERIS_TYPE":0,"CLASSIFICATION_TYPE":"U","NORAD_CAT_ID":62281,"ELEMENT_SET_NO":999,"REV_AT_EPOCH":3680,"BSTAR":0.00099446,"MEAN_MOTION_DOT":0.00027214,"MEAN_MOTION_DDOT":0},{"OBJECT_NAME":"STARLINK-33560","OBJECT_ID":"2024-237R","EPOCH":"2025-07-27T20:04:47.362656","MEAN_MOTION":15.27593338,"ECCENTRICITY":5.39e-5,"INCLINATION":43.0006,"RA_OF_ASC_NODE":46.2077,"ARG_OF_PERICENTER":269.283,"MEAN_ANOMALY":90.796,"EPHEMERIS_TYPE":0,"CLASSIFICATION_TYPE":"U","NORAD_CAT_ID":62282,"ELEMENT_SET_NO":999,"REV_AT_EPOCH":3668,"BSTAR":0.00065137,"MEAN_MOTION_DOT":0.00017713,"MEAN_MOTION_DDOT":0},{"OBJECT_NAME":"STARLINK-33547","OBJECT_ID":"2024-237S","EPOCH":"2025-07-27T19:07:39.783936","MEAN_MOTION":15.27588536,"ECCENTRICITY":0.0002814,"INCLINATION":43.004,"RA_OF_ASC_NODE":35.5209,"ARG_OF_PERICENTER":276.075,"MEAN_ANOMALY":83.9782,"EPHEMERIS_TYPE":0,"CLASSIFICATION_TYPE":"U","NORAD_CAT_ID":62283,"ELEMENT_SET_NO":999,"REV_AT_EPOCH":3692,"BSTAR":0.00087894,"MEAN_MOTION_DOT":0.00024011,"MEAN_MOTION_DDOT":0},{"OBJECT_NAME":"STARLINK-33563","OBJECT_ID":"2024-237T","EPOCH":"2025-07-27T20:14:02.372064","MEAN_MOTION":15.27603724,"ECCENTRICITY":3.21e-5,"INCLINATION":42.997,"RA_OF_ASC_NODE":46.2546,"ARG_OF_PERICENTER":246.1214,"MEAN_ANOMALY":113.9604,"EPHEMERIS_TYPE":0,"CLASSIFICATION_TYPE":"U","NORAD_CAT_ID":62284,"ELEMENT_SET_NO":999,"REV_AT_EPOCH":3680,"BSTAR":0.0009,"MEAN_MOTION_DOT":0.00024605,"MEAN_MOTION_DDOT":0},{"OBJECT_NAME":"STARLINK-33550","OBJECT_ID":"2024-237U","EPOCH":"2025-07-27T13:42:36.950400","MEAN_MOTION":15.27614254,"ECCENTRICITY":6.33e-5,"INCLINATION":42.9958,"RA_OF_ASC_NODE":47.6523,"ARG_OF_PERICENTER":350.4501,"MEAN_ANOMALY":9.6338,"EPHEMERIS_TYPE":0,"CLASSIFICATION_TYPE":"U","NORAD_CAT_ID":62285,"ELEMENT_SET_NO":999,"REV_AT_EPOCH":3676,"BSTAR":0.0011266,"MEAN_MOTION_DOT":0.00030902,"MEAN_MOTION_DDOT":0},{"OBJECT_NAME":"STARLINK-33564","OBJECT_ID":"2024-237V","EPOCH":"2025-07-27T14:02:57.947424","MEAN_MOTION":15.2757728,"ECCENTRICITY":0.0001218,"INCLINATION":42.9985,"RA_OF_ASC_NODE":47.7649,"ARG_OF_PERICENTER":271.4169,"MEAN_ANOMALY":88.6543,"EPHEMERIS_TYPE":0,"CLASSIFICATION_TYPE":"U","NORAD_CAT_ID":62286,"ELEMENT_SET_NO":999,"REV_AT_EPOCH":3676,"BSTAR":0.00077267,"MEAN_MOTION_DOT":0.00021059,"MEAN_MOTION_DDOT":0},{"OBJECT_NAME":"STARLINK-33546","OBJECT_ID":"2024-237W","EPOCH":"2025-07-27T20:08:29.030496","MEAN_MOTION":15.2760626,"ECCENTRICITY":9.17e-5,"INCLINATION":43.0001,"RA_OF_ASC_NODE":46.2234,"ARG_OF_PERICENTER":249.2626,"MEAN_ANOMALY":110.8128,"EPHEMERIS_TYPE":0,"CLASSIFICATION_TYPE":"U","NORAD_CAT_ID":62287,"ELEMENT_SET_NO":999,"REV_AT_EPOCH":3669,"BSTAR":0.00088049,"MEAN_MOTION_DOT":0.00024065,"MEAN_MOTION_DDOT":0},{"OBJECT_NAME":"STARLINK-33565","OBJECT_ID":"2024-237X","EPOCH":"2025-07-27T13:42:38.393280","MEAN_MOTION":15.27599331,"ECCENTRICITY":4.95e-5,"INCLINATION":42.9957,"RA_OF_ASC_NODE":36.415,"ARG_OF_PERICENTER":285.1318,"MEAN_ANOMALY":74.9478,"EPHEMERIS_TYPE":0,"CLASSIFICATION_TYPE":"U","NORAD_CAT_ID":62288,"ELEMENT_SET_NO":999,"REV_AT_EPOCH":3689,"BSTAR":0.00078614,"MEAN_MOTION_DOT":0.00021447,"MEAN_MOTION_DDOT":0},{"OBJECT_NAME":"STARLINK-33549","OBJECT_ID":"2024-237Y","EPOCH":"2025-07-27T20:25:08.739840","MEAN_MOTION":15.27588196,"ECCENTRICITY":0.0001735,"INCLINATION":43.001,"RA_OF_ASC_NODE":46.3144,"ARG_OF_PERICENTER":275.1218,"MEAN_ANOMALY":84.9436,"EPHEMERIS_TYPE":0,"CLASSIFICATION_TYPE":"U","NORAD_CAT_ID":62289,"ELEMENT_SET_NO":999,"REV_AT_EPOCH":3680,"BSTAR":0.00091666,"MEAN_MOTION_DOT":0.00025055,"MEAN_MOTION_DDOT":0},{"OBJECT_NAME":"STARLINK-32648","OBJECT_ID":"2024-239A","EPOCH":"2025-07-27T01:48:00.025056","MEAN_MOTION":15.39646389,"ECCENTRICITY":0.0001662,"INCLINATION":53.1572,"RA_OF_ASC_NODE":154.6162,"ARG_OF_PERICENTER":117.5707,"MEAN_ANOMALY":242.5467,"EPHEMERIS_TYPE":0,"CLASSIFICATION_TYPE":"U","NORAD_CAT_ID":62301,"ELEMENT_SET_NO":999,"REV_AT_EPOCH":3494,"BSTAR":0.00078698,"MEAN_MOTION_DOT":0.00031235,"MEAN_MOTION_DDOT":0}]
