STARLINK-11495 [DTC]    
1 62275U 24237J   25208.72296447  .00259011  00000+0  19581-2 0  9991
2 62275  43.0002 333.2799 0002167 277.1499  82.9122 15.70860072 37600
STARLINK-11498 [DTC]    
1 62276U 24237K   25208.73876552  .00304919  00000+0  22883-2 0  9991
2 62276  42.9997 332.5118 0001327 285.8486  74.2235 15.70895957 37663
STARLINK-11484 [DTC]    
1 62277U 24237L   25208.74938130  .00132560  00000+0  10191-2 0  9994
2 62277  42.9998 332.5960 0001517 273.8903  86.1791 15.70865052 37664
STARLINK-11487 [DTC]    
1 62278U 24237M   25208.64875925  .00169373  00000+0  12953-2 0  9996
2 62278  43.0014 333.5762 0001537 257.2513 102.8183 15.70866486 37654
STARLINK-11499 [DTC]    
1 62279U 24237N   25208.72387576  .00221112  00000+0  16772-2 0  9999
2 62279  42.9997 333.2851 0001455 282.3289  77.7416 15.70897285 37613
STARLINK-33548          
1 62280U 24237P   25208.86622808  .00019768  00000+0  72534-3 0  9997
2 62280  43.0003  35.1829 0001601 265.1970  94.8698 15.27608097 36936
STARLINK-33544          
1 62281U 24237Q   25208.85464832  .00027214  00000+0  99446-3 0  9994
2 62281  43.0021  46.3442 0001335 279.9112  80.1589 15.27591697 36807
STARLINK-33560          
1 62282U 24237R   25208.83665929  .00017713  00000+0  65137-3 0  9996
2 62282  43.0006  46.2077 0000539 269.2830  90.7960 15.27593338 36688
STARLINK-33547          
1 62283U 24237S   25208.79698824  .00024011  00000+0  87894-3 0  9995
2 62283  43.0040  35.5209 0002814 276.0750  83.9782 15.27588536 36927
STARLINK-33563          
1 62284U 24237T   25208.84308301  .00024605  00000+0  90000-3 0  9992
2 62284  42.9970  46.2546 0000321 246.1214 113.9604 15.27603724 36806
STARLINK-33550          
1 62285U 24237U   25208.57126100  .00030902  00000+0  11266-2 0  9991
2 62285  42.9958  47.6523 0000633 350.4501   9.6338 15.27614254 36767
STARLINK-33564          
1 62286U 24237V   25208.58539291  .00021059  00000+0  77267-3 0  9999
2 62286  42.9985  47.7649 0001218 271.4169  88.6543 15.27577280 36762
STARLINK-33546          
1 62287U 24237W   25208.83922489  .00024065  00000+0  88049-3 0  9993
2 62287  43.0001  46.2234 0000917 249.2626 110.8128 15.27606260 36694
STARLINK-33565          
1 62288U 24237X   25208.57127770  .00021447  00000+0  78614-3 0  9993
2 62288  42.9957  36.4150 0000495 285.1318  74.9478 15.27599331 36899
STARLINK-33549          
1 62289U 24237Y   25208.85079560  .00025055  00000+0  91666-3 0  9999
2 62289  43.0010  46.3144 0001735 275.1218  84.9436 15.27588196 36804
STARLINK-32648          
1 62301U 24239A   25208.07500029  .00031235  00000+0  78698-3 0  9996
2 62301  53.1572 154.6162 0001662 117.5707 242.5467 15.39646389 34949
